{"type":"FeatureCollection","bbox":[-81.7356575,12.4802608,-81.62618660000001,12.5949121],"properties":{"offsetProvidencia":[-0.277032,-0.799596],"nota":"Providencia y Santa Catalina conservan forma y tamaño reales, pero se dibujan junto a San Andrés: la distancia entre islas (~90 km) no está a escala."},"features":[{"type":"Feature","properties":{"nombre":"San Andrés","isla":"San Andrés","desplazada":false,"km_ns":12.7},"geometry":{"type":"Polygon","coordinates":[[[-81.7252065,12.5648805],[-81.7264259,12.5639812],[-81.7278159,12.5623915],[-81.7282509,12.5611609],[-81.7287433,12.5609993],[-81.7301139,12.5597329],[-81.7302594,12.5593015],[-81.7311023,12.5584815],[-81.7314175,12.5572975],[-81.7324571,12.554931],[-81.7325155,12.5542396],[-81.7314631,12.5512837],[-81.7312029,12.5493299],[-81.7310042,12.5491079],[-81.7309089,12.5492013],[-81.7309488,12.5489883],[-81.730673,12.5489331],[-81.7303463,12.5483587],[-81.7296191,12.5480719],[-81.7296444,12.5473184],[-81.7297833,12.546865],[-81.7311881,12.5459317],[-81.7312291,12.5452172],[-81.7316847,12.5449339],[-81.731667,12.5440889],[-81.7314785,12.5437865],[-81.7316847,12.5426836],[-81.7325272,12.540723],[-81.7326274,12.5387127],[-81.7335123,12.5370094],[-81.7334661,12.5360882],[-81.7352833,12.5324514],[-81.7356575,12.5308955],[-81.7350152,12.529309],[-81.7345,12.5287582],[-81.7341518,12.527934],[-81.7338946,12.5280091],[-81.7335582,12.5276926],[-81.7332695,12.5277962],[-81.7330255,12.5275455],[-81.7326325,12.5275966],[-81.7324379,12.5273813],[-81.7320507,12.5273464],[-81.7319794,12.527141],[-81.7311037,12.5270248],[-81.7308803,12.5265822],[-81.7306622,12.5265802],[-81.730156,12.5260337],[-81.7275742,12.52631],[-81.7274905,12.5259475],[-81.728045,12.5254344],[-81.7285249,12.5253545],[-81.7292172,12.5244611],[-81.7296459,12.5245492],[-81.7298782,12.5253644],[-81.7300164,12.5249455],[-81.7297126,12.5242431],[-81.7298017,12.523623],[-81.7295464,12.5234903],[-81.7295767,12.5232848],[-81.7292103,12.5233105],[-81.7287361,12.5228604],[-81.7289497,12.5224118],[-81.7288131,12.5219408],[-81.7292727,12.5212621],[-81.7292347,12.5206879],[-81.7288198,12.5201911],[-81.7292281,12.5194046],[-81.7294772,12.5193215],[-81.7291275,12.518227],[-81.7295899,12.5179026],[-81.729736,12.5175056],[-81.7298333,12.5140842],[-81.7302333,12.5114729],[-81.730118,12.5094631],[-81.7298671,12.5087529],[-81.7295683,12.5086066],[-81.7293681,12.5079808],[-81.7295195,12.5076947],[-81.7293026,12.5072489],[-81.7295745,12.5067308],[-81.7294917,12.5062359],[-81.7297961,12.5054876],[-81.7297921,12.5046483],[-81.7310437,12.5019977],[-81.7327364,12.5000769],[-81.7328352,12.4996271],[-81.7346358,12.4972133],[-81.7352855,12.4947271],[-81.7351719,12.493198],[-81.7354706,12.49212],[-81.7353322,12.4900002],[-81.7348541,12.4895027],[-81.7351042,12.4890352],[-81.7350961,12.4882208],[-81.7346174,12.4867858],[-81.734262,12.486095],[-81.7338834,12.4860219],[-81.7335629,12.4853563],[-81.7334444,12.4844859],[-81.7330342,12.4841421],[-81.7332048,12.4829592],[-81.7330986,12.4824667],[-81.7317005,12.4817995],[-81.7300736,12.4802608],[-81.7280272,12.4808653],[-81.72635,12.4829908],[-81.725556,12.485152],[-81.7246321,12.4863127],[-81.7237882,12.4879931],[-81.7231596,12.4886876],[-81.7219473,12.4917122],[-81.7208669,12.4930121],[-81.7208326,12.494062],[-81.7205678,12.4949622],[-81.7186771,12.4978329],[-81.7182264,12.4991049],[-81.7179092,12.4992769],[-81.7176578,12.4997614],[-81.7175235,12.5001306],[-81.7176549,12.5015757],[-81.7174463,12.5021234],[-81.7155576,12.5045613],[-81.7155546,12.5059157],[-81.7158528,12.5071477],[-81.7149178,12.5094873],[-81.7146781,12.5109812],[-81.7146686,12.5140558],[-81.714247,12.5155481],[-81.7141669,12.5177913],[-81.7137069,12.5191411],[-81.7135994,12.5212798],[-81.7132317,12.5230688],[-81.7126071,12.5244748],[-81.7117602,12.5247491],[-81.711365,12.5254998],[-81.7108248,12.5259149],[-81.7103581,12.5259278],[-81.7097825,12.5269796],[-81.7090016,12.5275521],[-81.7084779,12.5286976],[-81.7080246,12.5288069],[-81.7079481,12.5294366],[-81.7070457,12.5308843],[-81.7067244,12.5321178],[-81.7065319,12.5322595],[-81.7065569,12.5324539],[-81.7069147,12.5325604],[-81.7070661,12.533033],[-81.7074076,12.533198],[-81.7072254,12.5338242],[-81.7065943,12.5344684],[-81.7070201,12.534957],[-81.7074851,12.5348915],[-81.707643,12.5352617],[-81.7077142,12.5363281],[-81.7074258,12.5373216],[-81.7076487,12.53815],[-81.7073577,12.539482],[-81.7076709,12.5408431],[-81.7061699,12.5425448],[-81.7053212,12.5430474],[-81.7039181,12.5434757],[-81.7035212,12.5438077],[-81.7035037,12.5454551],[-81.7037882,12.5464702],[-81.703924,12.5464122],[-81.7040753,12.5468043],[-81.7045562,12.5496512],[-81.70432,12.5504658],[-81.7044501,12.5508247],[-81.7042776,12.5510415],[-81.7043646,12.5519845],[-81.7041313,12.5538766],[-81.7037414,12.5548329],[-81.7034162,12.5551634],[-81.7036747,12.5556693],[-81.7039162,12.5570709],[-81.7037717,12.5585508],[-81.7039615,12.5601001],[-81.7037,12.5606096],[-81.7039077,12.5611862],[-81.7034991,12.560921],[-81.7034054,12.5611325],[-81.7040368,12.5615727],[-81.7042393,12.561341],[-81.7045659,12.5614045],[-81.7044395,12.5611695],[-81.705336,12.5612849],[-81.7063408,12.561055],[-81.707055,12.5612238],[-81.7074139,12.5621906],[-81.7070954,12.5625603],[-81.7073053,12.5626534],[-81.7073735,12.5631487],[-81.706843,12.5636863],[-81.7058199,12.5636906],[-81.7055293,12.5639241],[-81.7047896,12.5640158],[-81.7026746,12.5635502],[-81.7022238,12.5640832],[-81.7022664,12.5643496],[-81.7025495,12.5644325],[-81.7019836,12.5642888],[-81.7017241,12.5644534],[-81.7015181,12.5641349],[-81.701602,12.5645271],[-81.7014236,12.5646961],[-81.7009047,12.5643334],[-81.7003495,12.5643841],[-81.7001282,12.565645],[-81.7003384,12.5662032],[-81.7000879,12.5664101],[-81.7004657,12.5667373],[-81.7008094,12.5665432],[-81.7018533,12.5669561],[-81.7029391,12.566948],[-81.703371,12.5678005],[-81.7030447,12.5678991],[-81.7029814,12.5681382],[-81.7038585,12.5688402],[-81.7045791,12.5684095],[-81.7048479,12.5675272],[-81.7053751,12.5677045],[-81.7053139,12.568372],[-81.7063234,12.5688549],[-81.7062396,12.5693951],[-81.7067569,12.5695234],[-81.7068964,12.5699456],[-81.70762,12.5698712],[-81.7076604,12.5704294],[-81.7072166,12.5712814],[-81.7070818,12.5721417],[-81.706537,12.5719139],[-81.7065928,12.5716556],[-81.7063717,12.5716714],[-81.7056632,12.5710836],[-81.7039825,12.5705215],[-81.7041143,12.5700172],[-81.7045116,12.5701897],[-81.7052669,12.5699512],[-81.706185,12.5703201],[-81.7066241,12.5702155],[-81.7065424,12.569914],[-81.7039111,12.5690872],[-81.7028821,12.568435],[-81.7026012,12.5679847],[-81.7022565,12.5679232],[-81.7021344,12.5682268],[-81.7015937,12.5685185],[-81.7014062,12.5695974],[-81.6999591,12.5698526],[-81.699929,12.5699973],[-81.7001173,12.5712424],[-81.7004695,12.571765],[-81.7003582,12.5719702],[-81.7033809,12.5743329],[-81.703241,12.5749667],[-81.7028798,12.5754052],[-81.6997093,12.5773115],[-81.6988206,12.5780008],[-81.6985893,12.5784504],[-81.6978959,12.5785365],[-81.6975881,12.5791104],[-81.6972592,12.5791153],[-81.6972307,12.5793048],[-81.696364,12.5798232],[-81.6949056,12.5797565],[-81.6934357,12.5803673],[-81.693222,12.5802824],[-81.6925311,12.5805286],[-81.6924054,12.5802809],[-81.6914516,12.5803251],[-81.6909062,12.5800321],[-81.6902063,12.5799717],[-81.6895693,12.5794952],[-81.6891105,12.5800818],[-81.688399,12.5800675],[-81.6883796,12.5803413],[-81.6880566,12.5804897],[-81.68792,12.5808768],[-81.6876815,12.5807626],[-81.6874223,12.5809232],[-81.6872761,12.5813953],[-81.688382,12.5828496],[-81.6882916,12.5830057],[-81.6887093,12.5828977],[-81.6890852,12.5833578],[-81.6893055,12.5833277],[-81.6891207,12.5836101],[-81.6892615,12.5837397],[-81.6893309,12.5834947],[-81.6902436,12.5836258],[-81.6927843,12.5849694],[-81.6931601,12.585329],[-81.6930183,12.5856428],[-81.693377,12.5854118],[-81.6949683,12.5858372],[-81.6950906,12.5860232],[-81.6953082,12.585883],[-81.6963771,12.5861343],[-81.6987073,12.5873192],[-81.6997901,12.5884378],[-81.7004174,12.5896701],[-81.7002061,12.5904708],[-81.6993808,12.590395],[-81.7003267,12.5907539],[-81.7004376,12.5912421],[-81.7009979,12.5919194],[-81.7028727,12.5930981],[-81.7031101,12.593386],[-81.7032003,12.594012],[-81.7038645,12.5948977],[-81.7044901,12.5949121],[-81.7070479,12.5938578],[-81.7071891,12.5939236],[-81.7071074,12.5941143],[-81.7073272,12.5937008],[-81.7077107,12.5935096],[-81.7082211,12.5935457],[-81.709354,12.5926455],[-81.7125361,12.589375],[-81.7147663,12.5863708],[-81.7163301,12.5852364],[-81.7173825,12.5842073],[-81.7180597,12.5840306],[-81.7187752,12.5834191],[-81.7200484,12.5816069],[-81.7217634,12.5796475],[-81.7218337,12.5792055],[-81.7226126,12.5781248],[-81.7223449,12.5765793],[-81.7223825,12.5756748],[-81.7230587,12.5744304],[-81.7225427,12.5730539],[-81.7227094,12.5721889],[-81.7224068,12.5718121],[-81.7227513,12.571496],[-81.7228044,12.5708582],[-81.7230423,12.570854],[-81.7231231,12.5703243],[-81.7234734,12.5703101],[-81.7233967,12.5695751],[-81.7235727,12.5695346],[-81.7232562,12.5689239],[-81.723455,12.5685577],[-81.7233056,12.5675443],[-81.7230212,12.5674235],[-81.7230513,12.5671427],[-81.7233472,12.5668901],[-81.7239854,12.5667926],[-81.7252065,12.5648805]]]}},{"type":"Feature","properties":{"nombre":"Providencia","isla":"Providencia","desplazada":true,"km_ns":7.3},"geometry":{"type":"Polygon","coordinates":[[[-81.6711994,12.544217399999999],[-81.6721342,12.543899],[-81.67183920000001,12.543224299999999],[-81.67221730000001,12.5427989],[-81.67240910000001,12.5408599],[-81.67327610000001,12.539750699999999],[-81.673269,12.5394688],[-81.6727618,12.538933799999999],[-81.6710908,12.5384484],[-81.6699722,12.5378417],[-81.66957400000001,12.535543599999999],[-81.6686755,12.5342934],[-81.6680639,12.5322968],[-81.6679553,12.5311889],[-81.6681578,12.529893099999999],[-81.66878810000001,12.529699899999999],[-81.6689678,12.5293463],[-81.6686961,12.5286323],[-81.6688431,12.527681099999999],[-81.6697015,12.526875299999999],[-81.66948350000001,12.5269132],[-81.66942250000001,12.5264884],[-81.6684589,12.5254587],[-81.6673348,12.5233878],[-81.66737730000001,12.5218034],[-81.6653509,12.5209434],[-81.66320780000001,12.520743699999999],[-81.6630992,12.521080399999999],[-81.6625681,12.5212918],[-81.66235490000001,12.522259499999999],[-81.66212820000001,12.5225016],[-81.6575926,12.52442],[-81.6564527,12.524448699999999],[-81.65549240000001,12.524004999999999],[-81.653698,12.5244252],[-81.65222550000001,12.5251012],[-81.65140210000001,12.5258111],[-81.65002070000001,12.5282997],[-81.6493475,12.5283571],[-81.6491436,12.5291453],[-81.64849050000001,12.5294168],[-81.64799300000001,12.5301815],[-81.64697910000001,12.530235],[-81.64697640000001,12.530694299999999],[-81.64634070000001,12.5314147],[-81.6461342,12.5320372],[-81.64555480000001,12.5326074],[-81.64419230000001,12.5331555],[-81.64227450000001,12.5332677],[-81.64066380000001,12.5339411],[-81.6395293,12.5339502],[-81.6381882,12.534380899999999],[-81.6375833,12.5341838],[-81.6371649,12.5345205],[-81.6363616,12.5347306],[-81.63636410000001,12.536247099999999],[-81.63451760000001,12.5396567],[-81.63327570000001,12.541512299999999],[-81.6329123,12.5434475],[-81.63237720000001,12.544049],[-81.63236370000001,12.5450851],[-81.63316040000001,12.547608799999999],[-81.63329490000001,12.5499156],[-81.63297130000001,12.5515625],[-81.6326253,12.5518731],[-81.63312330000001,12.5527863],[-81.6334554,12.552999199999999],[-81.6336043,12.5537025],[-81.63240130000001,12.554927699999999],[-81.631433,12.5555097],[-81.6308027,12.555539699999999],[-81.6286395,12.556627899999999],[-81.62778660000001,12.556596599999999],[-81.62702080000001,12.5569881],[-81.62670960000001,12.5573404],[-81.6266372,12.558378999999999],[-81.62621610000001,12.5599422],[-81.62618660000001,12.5613827],[-81.62701410000001,12.562305199999999],[-81.6276591,12.562249099999999],[-81.6296748,12.5611961],[-81.63025950000001,12.561192199999999],[-81.6307584,12.5609038],[-81.6310495,12.5610839],[-81.6311426,12.5613462],[-81.63082010000001,12.5615654],[-81.6308295,12.5622739],[-81.6317267,12.5632851],[-81.63177300000001,12.5640621],[-81.63233290000001,12.5643485],[-81.6322798,12.5647074],[-81.63293770000001,12.5647608],[-81.63302220000001,12.5651549],[-81.6324898,12.565923999999999],[-81.63309930000001,12.566271799999999],[-81.6334903,12.567051999999999],[-81.6337263,12.5681271],[-81.63403880000001,12.5683255],[-81.6340401,12.568746299999999],[-81.63470530000001,12.5688604],[-81.63510090000001,12.5686738],[-81.63518540000001,12.569151399999999],[-81.63494670000001,12.5695011],[-81.6346651,12.569520599999999],[-81.6342587,12.569891199999999],[-81.6339959,12.5706388],[-81.63454970000001,12.571134599999999],[-81.6354127,12.5709722],[-81.6352538,12.5718046],[-81.6324737,12.574644399999999],[-81.63131770000001,12.5768311],[-81.63154490000001,12.577864499999999],[-81.6324388,12.578736],[-81.63407360000001,12.5789539],[-81.63478180000001,12.5792305],[-81.6351774,12.5790739],[-81.63708580000001,12.5790335],[-81.6386119,12.579417099999999],[-81.63942600000001,12.5805169],[-81.6397546,12.583496799999999],[-81.64086630000001,12.5845354],[-81.6414725,12.5862275],[-81.64185880000001,12.5863958],[-81.6427989,12.5860658],[-81.6435948,12.5860481],[-81.64395830000001,12.5845269],[-81.64380270000001,12.583898],[-81.6441822,12.5833762],[-81.64481920000001,12.5832868],[-81.64565540000001,12.5828236],[-81.64625330000001,12.5828317],[-81.64634670000001,12.582500099999999],[-81.6469122,12.582059],[-81.64678920000001,12.5816365],[-81.6475439,12.5812831],[-81.64707820000001,12.581396699999999],[-81.64664990000001,12.580824199999999],[-81.64695760000001,12.5802508],[-81.6472849,12.5782806],[-81.6470958,12.577671299999999],[-81.64697040000001,12.5748538],[-81.64710380000001,12.574298599999999],[-81.6480882,12.572826899999999],[-81.6495618,12.5710739],[-81.6515147,12.5701456],[-81.6523542,12.570015099999999],[-81.65317770000001,12.5702448],[-81.65345130000001,12.5699512],[-81.65469180000001,12.5702109],[-81.6554468,12.5706192],[-81.65622200000001,12.572256699999999],[-81.65754430000001,12.571874399999999],[-81.65855470000001,12.5723378],[-81.6602909,12.5712312],[-81.6615938,12.570962999999999],[-81.6620156,12.570666899999999],[-81.66243670000001,12.5701137],[-81.6628175,12.569090099999999],[-81.6637228,12.5680228],[-81.66454890000001,12.567318199999999],[-81.6651846,12.567259499999999],[-81.66538840000001,12.5670612],[-81.66538580000001,12.5664649],[-81.66590070000001,12.5645729],[-81.6665337,12.563719599999999],[-81.66826510000001,12.5602658],[-81.66932990000001,12.5594477],[-81.66950030000001,12.557748799999999],[-81.67033040000001,12.556160799999999],[-81.6700287,12.5556076],[-81.6705369,12.5545976],[-81.67046450000001,12.5541644],[-81.67082130000001,12.5539765],[-81.670443,12.5534857],[-81.6706778,12.5520962],[-81.67024860000001,12.551703499999999],[-81.67000340000001,12.5495635],[-81.67024060000001,12.547854099999999],[-81.6708789,12.546451399999999],[-81.670714,12.5454362],[-81.6711994,12.544217399999999]]]}},{"type":"Feature","properties":{"nombre":"Santa Catalina","isla":"Providencia","desplazada":true,"km_ns":1.4},"geometry":{"type":"Polygon","coordinates":[[[-81.65352670000001,12.581854],[-81.6530075,12.581948899999999],[-81.65270640000001,12.582276799999999],[-81.6517038,12.5827498],[-81.65045640000001,12.5825774],[-81.64935100000001,12.583207999999999],[-81.6484097,12.5828352],[-81.64776250000001,12.582906099999999],[-81.64749520000001,12.5834044],[-81.6475929,12.5836566],[-81.64720240000001,12.5840117],[-81.647276,12.584264099999999],[-81.6469861,12.584434],[-81.6467937,12.584934899999999],[-81.6469069,12.585175699999999],[-81.64667600000001,12.585256999999999],[-81.64639890000001,12.5860076],[-81.64552180000001,12.5864172],[-81.6455078,12.5868518],[-81.64641800000001,12.587136],[-81.64655060000001,12.5876144],[-81.6468535,12.5876261],[-81.64726250000001,12.5871733],[-81.6473962,12.58757],[-81.6480533,12.5873274],[-81.6483776,12.587611299999999],[-81.6478776,12.589317],[-81.64839210000001,12.589825999999999],[-81.64853120000001,12.5903031],[-81.64797770000001,12.5923377],[-81.64631370000001,12.5938044],[-81.64615110000001,12.594078099999999],[-81.64626410000001,12.5943173],[-81.647294,12.594223099999999],[-81.6484616,12.5949121],[-81.64882700000001,12.5947477],[-81.64907230000001,12.5941134],[-81.6496304,12.5937138],[-81.6500228,12.5937153],[-81.6510226,12.5942014],[-81.6524002,12.5934099],[-81.652816,12.593541799999999],[-81.65314520000001,12.5932759],[-81.6533081,12.5936912],[-81.65353130000001,12.593785299999999],[-81.65355890000001,12.593463499999999],[-81.65411340000001,12.593375499999999],[-81.65426590000001,12.5928237],[-81.6548839,12.5922989],[-81.65521600000001,12.5922632],[-81.6560857,12.591644299999999],[-81.6566698,12.5917838],[-81.65662580000001,12.590693799999999],[-81.65756320000001,12.5886895],[-81.6573855,12.5867483],[-81.6579126,12.5863255],[-81.65774080000001,12.5860389],[-81.65724660000001,12.5860057],[-81.65687120000001,12.5854184],[-81.65622130000001,12.5851653],[-81.6557985,12.584511899999999],[-81.65482770000001,12.5841671],[-81.6546122,12.5836627],[-81.65437490000001,12.5835943],[-81.6537842,12.5828016],[-81.6537641,12.5822494],[-81.65352670000001,12.581854]]]}}]}